OUFTI-1                 
1 41458U 16025C   21351.82673359  .00008949  00000+0  41592-3 0  9994
2 41458  98.1657 140.5833 0154468 160.3031 200.4254 15.10175706310134
E-ST@R-II               
1 41459U 16025D   21351.67182275  .00006164  00000+0  29164-3 0  9998
2 41459  98.1635 139.2598 0156949 164.3904 196.2253 15.09459334310044
AAUSAT 4                
1 41460U 16025E   21351.88923375  .00008931  00000+0  39517-3 0  9994
2 41460  98.1600 144.3640 0141812 144.4181 216.6772 15.13250325310432
AIST-2D (RS-48)         
1 41465U 16026B   21351.74208810  .00003549  00000+0  98112-4 0  9992
2 41465  97.0809 229.4108 0012389  73.7655 327.0421 15.37586170315581
SAMSAT-218D             
1 41466U 16026C   21351.71248787  .00071217  00000+0  59758-3 0  9996
2 41466  97.1443 261.6067 0004045  10.6557  43.3433 15.69704730317425
NUSAT-1 (FRESCO)        
1 41557U 16033B   21351.85843485  .00003205  00000+0  11047-3 0  9997
2 41557  97.3927  84.8996 0011061 309.1221 191.3702 15.30694284309571
NUSAT-2 (BATATA)        
1 41558U 16033C   21351.86832126  .00003390  00000+0  10930-3 0  9994
2 41558  97.4077  89.6265 0009897 299.9682 200.7552 15.32829141309800
CARTOSAT-2C             
1 41599U 16040A   21351.87900622  .00000904  00000+0  46116-4 0  9999
2 41599  97.5155  47.7755 0015170  96.9821 318.0557 15.19220180304360
SATHYABAMASAT           
1 41600U 16040B   21351.64416715  .00005315  00000+0  19836-3 0  9991
2 41600  97.2500  43.8710 0013671  53.6345 306.6154 15.27728474305104
LAPAN-A3                
1 41603U 16040E   21351.90108796  .00000303  00000+0  16958-4 0  9995
2 41603  97.2332  31.6239 0015111  80.1030 268.6188 15.20195772304440
BIROS                   
1 41604U 16040F   21351.86554346  .00001416  00000+0  62889-4 0  9997
2 41604  97.2387  37.9834 0013438  58.8704 301.3850 15.23040679304811
SWAYAM                  
1 41607U 16040J   21351.65147171  .00004952  00000+0  18759-3 0  9995
2 41607  97.2453  42.4506 0013479  54.4242 305.8251 15.27270219304991
BEESAT-4                
1 41619U 16040W   21351.72485560  .00004457  00000+0  17147-3 0  9993
2 41619  97.2464  42.5641 0011493  49.6852 310.5390 15.26833179292963
3CAT-2                  
1 41732U 16051B   21351.78652278  .00002708  00000+0  95717-4 0  9996
2 41732  97.3803 270.6024 0010926 211.7624 213.9357 15.30009057297526
PRATHAM                 
1 41783U 16059A   21351.87542135  .00000153  00000+0  38498-4 0  9995
2 41783  97.9407  35.4589 0034078  29.4651 330.8463 14.63201398279073
ALSAT 1N                
1 41789U 16059G   21351.89258432  .00000119  00000+0  31077-4 0  9995
2 41789  97.9448  39.6128 0028623  14.2278 345.9720 14.64497214279297
LISHUI 1-01             
1 41845U 16066E   21351.87722197  .00017135  00000+0  20664-2 0  9992
2 41845  98.7320 105.5913 0258652 275.1310  82.1651 14.62867133270186
CARTOSAT-2D             
1 41948U 17008A   21351.51112317  .00002401  00000+0  11715-3 0  9999
2 41948  97.4200  48.8906 0005706 234.0318 125.8100 15.19235799268176
NAYIF-1 (EO-88)         
1 42017U 17008BX  21351.76038408  .00005488  00000+0  19339-3 0  9990
2 42017  97.2964  56.0187 0006131 162.0776 198.0682 15.29676512269263
ZHUHAI-1 02 (CAS-4B)    
1 42759U 17034B   21351.81300203  .00000789  00000+0  60099-4 0  9992
2 42759  43.0184 252.7685 0008763 237.3096 230.1614 15.10618225248875
ZHUHAI-1 01 (CAS-4A)    
1 42761U 17034D   21351.79272685  .00000884  00000+0  65605-4 0  9998
2 42761  43.0180 251.7990 0008996 239.0758 224.8786 15.10705448248878
UCLSAT                  
1 42765U 17036A   21351.87608875  .00004422  00000+0  17448-3 0  9990
2 42765  97.2262  35.4959 0008851 244.5461 115.4863 15.26012914250137
NIUSAT                  
1 42766U 17036B   21351.67584939  .00003023  00000+0  12892-3 0  9997
2 42766  97.2279  31.1361 0013090 247.0058 112.9799 15.23599457249101
CARTOSAT-2E             
1 42767U 17036C   21351.87325539  .00000902  00000+0  46017-4 0  9999
2 42767  97.4825  49.4510 0006970 293.2350 154.1840 15.19264592248799
LITUANICASAT-2          
1 42768U 17036D   21351.86948563  .00008095  00000+0  29536-3 0  9994
2 42768  97.2347  36.9780 0011632 230.4453 129.5760 15.28337750249464
AALTO-1                 
1 42775U 17036L   21351.86042000  .00002177  00000+0  94269-4 0  9994
2 42775  97.2240  31.4489 0011688 245.3582 114.6438 15.23384983249113
URSA MAIOR              
1 42776U 17036M   21351.69577027  .00002705  00000+0  11528-3 0  9991
2 42776  97.2256  31.8708 0011442 244.7462 115.2590 15.23727002249116
COMPASS 2               
1 42777U 17036N   21351.87382583  .00006061  00000+0  22926-3 0  9996
2 42777  97.2332  36.8860 0009810 231.8444 128.1912 15.27269186249398
MAX VALIER SAT          
1 42778U 17036P   21351.69178466  .00002749  00000+0  11469-3 0  9999
2 42778  97.2327  34.1373 0010030 245.7646 114.2544 15.24443469249197
PEGASUS                 
1 42784U 17036V   21351.65043158  .00003654  00000+0  14705-3 0  9993
2 42784  97.2274  34.6949 0009478 248.6300 111.3928 15.25460280249276
NUDTSAT                 
1 42787U 17036Y   21351.91643256  .00004461  00000+0  16570-3 0  9999
2 42787  97.2316  38.0395 0008587 235.9364 124.1072 15.28023405249334
SUCHAI                  
1 42788U 17036Z   21351.87012468  .00004795  00000+0  18625-3 0  9993
2 42788  97.2282  36.1614 0009071 243.1162 116.9150 15.26496891249456
SKCUBE                  
1 42789U 17036AA  21351.87065999  .00004385  00000+0  17245-3 0  9993
2 42789  97.2277  35.7764 0008975 243.7902 116.2414 15.26131948249356
VZLUSAT-1               
1 42790U 17036AB  21351.84939287  .00005982  00000+0  22158-3 0  9995
2 42790  97.2313  37.9594 0008324 236.4190 123.6256 15.27979851249473
ROBUSTA-1B              
1 42792U 17036AD  21351.87316253  .00004562  00000+0  17772-3 0  9991
2 42792  97.2277  36.2368 0008563 243.7909 116.2450 15.26429239249393
D-SAT                   
1 42794U 17036AF  21351.82208090  .00000946  00000+0  86174-4 0  9992
2 42794  97.4543   1.9209 0124237 333.6528  25.8407 14.91830022244398
NORSAT 2                
1 42828U 17042D   21351.86381156  .00000770  00000+0  80827-4 0  9990
2 42828  97.4502 213.1749 0012796 250.6444 109.3393 14.92111453241084
TECHNOSAT               
1 42829U 17042E   21351.89214520  .00000599  00000+0  65058-4 0  9992
2 42829  97.4410 211.4073 0012625 253.1731 106.8104 14.91431191241021
2017-042F               
1 42830U 17042F   21351.89906141  .00001958  00000+0  19141-3 0  9992
2 42830  97.4551 214.8140 0012510 243.7252 116.2683 14.93386051241176
FLYING LAPTOP           
1 42831U 17042G   21351.66355669  .00000326  00000+0  37762-4 0  9999
2 42831  97.4427 211.4638 0012432 254.7888 105.1956 14.91427420240997
CORVUS BC2              
1 42846U 17042X   21351.87965902  .00000336  00000+0  37856-4 0  9990
2 42846  97.4443 214.2316 0008108 240.7885 119.2525 14.92451192241197
CORVUS BC1              
1 42847U 17042Y   21351.90547301  .00000703  00000+0  73516-4 0  9995
2 42847  97.4447 214.5286 0007799 239.5792 120.4658 14.92547520241203
SIMPL                   
1 42983U 98067NF  21351.87929347  .00020942  00000+0  15933-3 0  9997
2 42983  51.6360  44.2613 0003322 335.4444  24.6396 15.72238689236200
CZ-4C R/B               
1 43012U 17072C   21351.67652179  .00000122  00000+0  36295-4 0  9995
2 43012  98.7183  14.7787 0127972 152.7407 208.0583 14.56229146217406
RADFXSAT (FOX-1B)       
1 43017U 17073E   21351.65166287  .00001452  00000+0  11493-3 0  9998
2 43017  97.6925 248.2430 0254670  62.5066 300.1786 14.80015532220218
EAGLESAT 1              
1 43018U 17073F   21351.67434936  .00002754  00000+0  20901-3 0  9990
2 43018  97.6948 249.5051 0250294  58.0187 304.5090 14.81358971220167
INS-1C                  
1 43116U 18004F   21351.83482852  .00004184  00000+0  16406-3 0  9996
2 43116  97.3983  64.5342 0007114 276.0084  84.0344 15.26293395218605
FLOCK 3P'-3             
1 43119U 18004J   21351.79309080  .00002263  00000+0  93464-4 0  9991
2 43119  97.3967  63.0659 0008095 287.0462  72.9889 15.25019008218512
FLOCK 3P'-2             
1 43120U 18004K   21351.74673616  .00002290  00000+0  95620-4 0  9993
2 43120  97.3975  62.7381 0008159 288.7395  71.2957 15.24640793218489
FLOCK 3P'-1             
1 43121U 18004L   21351.75569319  .00007013  00000+0  24671-3 0  9994
2 43121  97.3977  65.7123 0006707 272.7840  87.2632 15.29635883218615
FLOCK 3P'-4             
1 43122U 18004M   21351.73784614  .00001931  00000+0  80895-4 0  9994
2 43122  97.3984  62.8675 0007905 290.3314  69.7074 15.24721590218483
MICROMAS-2A             
1 43131U 18004W   21351.78978174  .00006793  00000+0  24187-3 0  9997
2 43131  97.3973  66.5908 0006412 273.9880  86.0627 15.29255272218769
PICSAT                  
1 43132U 18004X   21351.74774491  .00004843  00000+0  18482-3 0  9995
2 43132  97.3941  64.6053 0007077 283.6783  76.3668 15.27113061218644
CNUSAIL-1               
1 43133U 18004Y   21351.78011794  .00003187  00000+0  12763-3 0  9996
2 43133  97.3904  63.2565 0007395 287.7647  72.2784 15.25761257218574
2018-004Z               
1 43134U 18004Z   21351.84864964  .00004010  00000+0  15592-3 0  9998
2 43134  97.3929  64.2442 0007132 285.6917  74.3535 15.26593487218636
FOX-1D (AO-92)          
1 43137U 18004AC  21351.84335461  .00003585  00000+0  14116-3 0  9993
2 43137  97.3913  63.9266 0006893 287.3123  72.7361 15.26248421218626
STEP CUBE LAB           
1 43138U 18004AD  21351.77838401  .00006048  00000+0  21980-3 0  9992
2 43138  97.3970  66.2768 0006387 280.3235  79.7284 15.28632801218743
XIAOXIANG-2             
1 43155U 18008A   21351.81562348  .00001621  00000+0  94759-4 0  9991
2 43155  97.3810  51.1116 0018368  57.8924   6.9749 15.13127552215795
ZHOU ENLAI              
1 43156U 18008B   21351.80863050  .00001173  00000+0  70292-4 0  9993
2 43156  97.3852  50.9482 0015637  58.2811  78.9030 15.12774969215725
